     2.11           N: GPS NAV DATA                         RINEX VERSION / TYPE
RTKCONV 2.4.2                           20230813 104226 UTC PGM / RUN BY / DATE 
log: C:\Users\oo\Desktop\divers\verniquet\Réseau\beaumonts  COMMENT             
format: u-blox                                              COMMENT             
                                                            END OF HEADER       
20 23  8  9 18  0  0.0  .418120995164E-03 -.204636307899E-11  .000000000000E+00
     .690000000000E+02 -.629687500000E+02  .489877548223E-08 -.857632539198E+00
    -.320933759212E-05  .404474698007E-02  .778213143349E-05  .515359746933E+04
     .324000000000E+06  .596046447754E-07  .187550131759E+01 -.111758708954E-07
     .949437743824E+00  .223031250000E+03 -.287287216183E+01 -.816891169653E-08
     .217509060125E-09  .100000000000E+01  .227400000000E+04  .000000000000E+00
     .240000000000E+01  .000000000000E+00 -.838190317154E-08  .690000000000E+02
     .322536000000E+06  .400000000000E+01
30 23  8  9 18  0  0.0 -.497781205922E-03  .306954461848E-11  .000000000000E+00
     .390000000000E+02 -.118750000000E+01  .515378610445E-08 -.247525331150E+01
    -.104308128357E-06  .659616023768E-02  .770762562752E-05  .515377936554E+04
     .324000000000E+06  .186264514923E-08 -.213655627660E+01 -.819563865662E-07
     .935320202538E+00  .215687500000E+03 -.254587729392E+01 -.817426906255E-08
    -.270725562521E-09  .100000000000E+01  .227400000000E+04  .000000000000E+00
     .240000000000E+01  .000000000000E+00  .372529029846E-08  .390000000000E+02
     .322536000000E+06  .400000000000E+01
 5 23  8  9 18  0  0.0 -.138165429235E-03 -.147792889038E-11  .000000000000E+00
     .800000000000E+02 -.596250000000E+02  .451875965305E-08  .828548203421E+00
    -.297650694847E-05  .608619849663E-02  .846944749355E-05  .515371173668E+04
     .324000000000E+06 -.745058059692E-07  .199927514874E+01  .353902578354E-07
     .966969083447E+00  .222000000000E+03  .120190105811E+01 -.805176395972E-08
     .174650132022E-09  .100000000000E+01  .227400000000E+04  .000000000000E+00
     .240000000000E+01  .000000000000E+00 -.111758708954E-07  .800000000000E+02
     .322536000000E+06  .400000000000E+01
 7 23  8  9 18  0  0.0  .100557226688E-03 -.109139364213E-10  .000000000000E+00
     .420000000000E+02 -.253125000000E+01  .473376860903E-08 -.239433521344E+01
    -.176951289177E-06  .175284279976E-01  .770576298237E-05  .515372767067E+04
     .324000000000E+06  .150874257088E-06 -.214153536071E+01 -.124797224998E-06
     .950194420646E+00  .222875000000E+03 -.217769374658E+01 -.778282418587E-08
    -.191436545529E-09  .100000000000E+01  .227400000000E+04  .000000000000E+00
     .240000000000E+01  .000000000000E+00 -.111758708954E-07  .420000000000E+02
     .322536000000E+06  .400000000000E+01
13 23  8  9 17 59 44.0  .558023341000E-03  .477484718431E-11  .000000000000E+00
     .120000000000E+02 -.117812500000E+02  .466590863954E-08  .894772060334E-01
    -.478699803352E-06  .731280050240E-02  .696629285812E-05  .515366479683E+04
     .323984000000E+06 -.111758708954E-07 -.305178225772E+01  .242143869400E-07
     .970460290629E+00  .246625000000E+03  .921075358120E+00 -.810855203945E-08
    -.357157734196E-12  .100000000000E+01  .227400000000E+04  .000000000000E+00
     .240000000000E+01  .000000000000E+00 -.111758708954E-07  .120000000000E+02
     .322536000000E+06  .400000000000E+01
11 23  8  9 18  0  0.0 -.313371885568E-03 -.171667124960E-10  .000000000000E+00
     .260000000000E+02 -.546875000000E+02  .451304512930E-08 -.116723901653E+00
    -.275298953056E-05  .102330418304E-02  .473111867905E-05  .515357910156E+04
     .324000000000E+06 -.223517417908E-07  .104783907052E+01  .558793544769E-08
     .965575684697E+00  .292062500000E+03 -.282664176200E+01 -.814605360154E-08
     .582167106740E-10  .100000000000E+01  .227400000000E+04  .000000000000E+00
     .240000000000E+01  .000000000000E+00 -.884756445885E-08  .282000000000E+03
     .322536000000E+06  .400000000000E+01
14 23  8  9 18  0  0.0  .148910097778E-03  .117097442853E-10  .000000000000E+00
     .183000000000E+03  .657812500000E+02  .453733185523E-08  .313031730319E+01
     .350922346115E-05  .347897515167E-02  .860542058945E-05  .515368103027E+04
     .324000000000E+06 -.111758708954E-07 -.106607728631E+01 -.242143869400E-07
     .947856516634E+00  .206125000000E+03 -.295767386706E+01 -.798711840983E-08
    -.141791620476E-09  .100000000000E+01  .227400000000E+04  .000000000000E+00
     .240000000000E+01  .000000000000E+00 -.791624188423E-08  .439000000000E+03
     .322536000000E+06  .400000000000E+01
15 23  8  9 18  0  0.0  .660591758788E-04  .363797880709E-11  .000000000000E+00
     .820000000000E+02 -.142812500000E+02  .554451666566E-08 -.531261681913E+00
    -.588595867157E-06  .152416769415E-01  .725872814655E-05  .515375660706E+04
     .324000000000E+06 -.154599547386E-06  .294977993623E+01  .135973095894E-06
     .933324144445E+00  .224718750000E+03  .122478176835E+01 -.868750472659E-08
     .163935399996E-09  .100000000000E+01  .227400000000E+04  .000000000000E+00
     .240000000000E+01  .000000000000E+00 -.107102096081E-07  .820000000000E+02
     .322536000000E+06  .400000000000E+01
18 23  8  9 18  0  0.0 -.376597978175E-03 -.135287336889E-10  .000000000000E+00
     .200000000000E+01 -.636250000000E+02  .425553440295E-08 -.155491969235E+01
    -.356137752533E-05  .357216736302E-02  .492669641972E-05  .515366668510E+04
     .324000000000E+06  .316649675369E-07  .101644898128E+01 -.167638063431E-07
     .974025025538E+00  .291250000000E+03 -.313928119475E+01 -.809712299196E-08
     .721458623076E-10  .100000000000E+01  .227400000000E+04  .000000000000E+00
     .240000000000E+01  .000000000000E+00 -.838190317154E-08  .770000000000E+03
     .322536000000E+06  .400000000000E+01
 9 23  8  9 18  0  0.0 -.908877700567E-04  .966338120634E-11  .000000000000E+00
     .690000000000E+02 -.166250000000E+02  .476734143605E-08  .976935563962E+00
    -.108219683170E-05  .258550175931E-02  .772066414356E-05  .515356387711E+04
     .324000000000E+06 -.745058059692E-07  .307003134299E+01 -.726431608200E-07
     .956904397240E+00  .228343750000E+03  .193569682118E+01 -.803497754621E-08
     .163935399996E-09  .100000000000E+01  .227400000000E+04  .000000000000E+00
     .240000000000E+01  .000000000000E+00  .931322574615E-09  .690000000000E+02
     .322956000000E+06  .400000000000E+01
 5 23  8  9 20  0  0.0 -.138176139444E-03 -.147792889038E-11  .000000000000E+00
     .820000000000E+02 -.721875000000E+02  .438268255632E-08  .187834946987E+01
    -.374577939510E-05  .608641607687E-02  .796467065811E-05  .515371581841E+04
     .331200000000E+06 -.484287738800E-07  .199921711039E+01 -.171363353729E-06
     .966971346581E+00  .231531250000E+03  .120225644480E+01 -.787139930395E-08
     .256082095419E-09  .100000000000E+01  .227400000000E+04  .000000000000E+00
     .240000000000E+01  .000000000000E+00 -.111758708954E-07  .820000000000E+02
     .324006000000E+06  .400000000000E+01
20 23  8  9 20  0  0.0  .418106559664E-03 -.204636307899E-11  .000000000000E+00
     .700000000000E+02 -.675000000000E+02  .479341395065E-08  .192790277255E+00
    -.345148146152E-05  .404643674847E-02  .736117362976E-05  .515360098648E+04
     .331200000000E+06  .558793544769E-07  .187544247171E+01  .223517417908E-07
     .949439237464E+00  .235750000000E+03 -.287306640663E+01 -.817819779762E-08
     .209294432239E-09  .100000000000E+01  .227400000000E+04  .000000000000E+00
     .240000000000E+01  .000000000000E+00 -.838190317154E-08  .700000000000E+02
     .324006000000E+06  .400000000000E+01
30 23  8  9 20  0  0.0 -.497759785503E-03  .306954461848E-11  .000000000000E+00
     .400000000000E+02  .112500000000E+01  .522628912449E-08 -.142525765982E+01
    -.223517417908E-07  .659651577007E-02  .749155879021E-05  .515377766037E+04
     .331200000000E+06  .102445483208E-06 -.213661490743E+01 -.949949026108E-07
     .935318093010E+00  .221687500000E+03 -.254575146980E+01 -.820998483597E-08
    -.323227749447E-09  .100000000000E+01  .227400000000E+04  .000000000000E+00
     .240000000000E+01  .000000000000E+00  .372529029846E-08  .400000000000E+02
     .324006000000E+06  .400000000000E+01
13 23  8  9 20  0  0.0  .558057799935E-03  .477484718431E-11  .000000000000E+00
     .440000000000E+02 -.111562500000E+02  .468376652625E-08  .114189024792E+01
    -.435858964920E-06  .731390889268E-02  .773184001446E-05  .515366739082E+04
     .331200000000E+06 -.800937414169E-07 -.305184145763E+01  .188127160072E-06
     .970460700246E+00  .237093750000E+03  .921183159090E+00 -.809033699501E-08
     .139648674071E-09  .100000000000E+01  .227400000000E+04  .000000000000E+00
     .240000000000E+01  .000000000000E+00 -.111758708954E-07  .440000000000E+02
     .324006000000E+06  .400000000000E+01
 7 23  8  9 20  0  0.0  .100478995591E-03 -.109139364213E-10  .000000000000E+00
     .430000000000E+02  .621875000000E+01  .490413284825E-08 -.134425574533E+01
     .324100255966E-06  .175289708422E-01  .749528408051E-05  .515372512817E+04
     .331200000000E+06  .398606061935E-06 -.214159068973E+01  .158324837685E-06
     .950191781542E+00  .227718750000E+03 -.217762309202E+01 -.802211986778E-08
    -.376444251843E-09  .100000000000E+01  .227400000000E+04  .000000000000E+00
     .240000000000E+01  .000000000000E+00 -.111758708954E-07  .430000000000E+02
     .324006000000E+06  .400000000000E+01
